NORAD_CAT_ID,OBJECT_NAME,OBJECT_TYPE,EPOCH,MEAN_MOTION,ECCENTRICITY,INCLINATION,RA_OF_ASC_NODE,ARG_OF_PERICENTER,MEAN_ANOMALY,BSTAR,MEAN_MOTION_DOT,MEAN_MOTION_DDOT,TLE_LINE0,TLE_LINE1,TLE_LINE2,SEMIMAJOR_AXIS,PERIOD,APOGEE,PERIGEE,DECAYED
49447.0,STARLINK-3115,PAYLOAD,2024-08-05 13:30:37,15.08829767,0.0001465,53.2159,307.9051,84.7974,275.3186,0.0014365,0.00022641,0.0,0 STARLINK-3115,1 49447U 21104AR  24218.56293975  .00022641  00000-0  14365-2 0  9995,2 49447  53.2159 307.9051 0001465  84.7974 275.3186 15.08829767151041,6917.912,95.438,540.79,538.763,0.0
49447.0,STARLINK-3115,PAYLOAD,2024-08-06 13:21:25,15.08828114,0.0001479,53.2148,303.4437,77.3837,282.7321,0.00051898,7.979e-05,0.0,0 STARLINK-3115,1 49447U 21104AR  24219.55655026  .00007979  00000-0  51898-3 0  9994,2 49447  53.2148 303.4437 0001479  77.3837 282.7321 15.08828114151193,6917.917,95.438,540.805,538.759,0.0
49447.0,STARLINK-3115,PAYLOAD,2024-08-07 11:36:49,15.08848248,0.0001595,53.2159,299.2813,74.5498,285.567,0.00047906,7.346e-05,0.0,0 STARLINK-3115,1 49447U 21104AR  24220.48390799  .00007346  00000-0  47906-3 0  9994,2 49447  53.2159 299.2813 0001595  74.5498 285.5670 15.08848248151330,6917.855,95.437,540.824,538.617,0.0
49447.0,STARLINK-3115,PAYLOAD,2024-08-08 11:27:36,15.08851322,0.0001446,53.2166,294.8218,81.7959,278.3197,0.00031112,4.668e-05,0.0,0 STARLINK-3115,1 49447U 21104AR  24221.47750432  .00004668  00000-0  31112-3 0  9994,2 49447  53.2166 294.8218 0001446  81.7959 278.3197 15.08851322152551,6917.846,95.437,540.711,538.71,0.0
49447.0,STARLINK-3115,PAYLOAD,2024-08-09 11:18:23,15.08848679,0.000142,53.2158,290.3579,78.2544,281.8607,6.1544e-05,6.92e-06,0.0,0 STARLINK-3115,1 49447U 21104AR  24222.47110083  .00000692  00000-0  61544-4 0  9993,2 49447  53.2158 290.3579 0001420  78.2544 281.8607 15.08848679152709,6917.854,95.437,540.701,538.737,0.0
49447.0,STARLINK-3115,PAYLOAD,2024-08-09 12:53:46,15.08849186,0.0001449,53.2161,290.0606,78.6498,281.4657,6.3062e-05,7.16e-06,0.0,0 STARLINK-3115,1 49447U 21104AR  24222.53734000  .00000716  00000-0  63062-4 0  9995,2 49447  53.2161 290.0606 0001449  78.6498 281.4657 15.08849186151641,6917.852,95.437,540.72,538.715,0.0
49447.0,STARLINK-3115,PAYLOAD,2024-08-09 14:29:09,15.08852261,0.0001405,53.2168,289.7626,79.147,280.968,5.0338e-05,5.14e-06,0.0,0 STARLINK-3115,1 49447U 21104AR  24222.60357780  .00000514  00000-0  50338-4 0  9997,2 49447  53.2168 289.7626 0001405  79.1470 280.9680 15.08852261151652,6917.843,95.437,540.68,538.736,0.0
49447.0,STARLINK-3115,PAYLOAD,2024-08-10 04:47:37,15.08840153,0.0001481,53.2172,287.0846,81.5265,278.5895,4.7642e-05,4.7e-06,0.0,0 STARLINK-3115,1 49447U 21104AR  24223.19974350  .00000470  00000-0  47642-4 0  9995,2 49447  53.2172 287.0846 0001481  81.5265 278.5895 15.08840153152812,6917.88,95.438,540.769,538.72,0.0
49447.0,STARLINK-3115,PAYLOAD,2024-08-10 11:09:10,15.0883398,0.0001439,53.2172,285.8951,79.8295,280.286,-2.4225e-05,-6.73e-06,0.0,0 STARLINK-3115,1 49447U 21104AR  24223.46470879 -.00000673  00000-0 -24225-4 0  9991,2 49447  53.2172 285.8951 0001439  79.8295 280.2860 15.08833980152857,6917.899,95.438,540.759,538.768,0.0
49447.0,STARLINK-3115,PAYLOAD,2024-08-10 12:44:33,15.08834788,0.0001452,53.2174,285.5975,80.1246,279.991,-2.3301e-05,-6.59e-06,0.0,0 STARLINK-3115,1 49447U 21104AR  24223.53094819 -.00000659  00000-0 -23301-4 0  9993,2 49447  53.2174 285.5975 0001452  80.1246 279.9910 15.08834788151798,6917.896,95.438,540.766,538.757,0.0
49447.0,STARLINK-3115,PAYLOAD,2024-08-10 20:41:28,15.08852298,0.0001362,53.2166,284.1123,70.178,289.9359,0.00013278,1.827e-05,0.0,0 STARLINK-3115,1 49447U 21104AR  24223.86213115  .00001827  00000-0  13278-3 0  9998,2 49447  53.2166 284.1123 0001362  70.1780 289.9359 15.08852298152910,6917.843,95.437,540.65,538.766,0.0
49447.0,STARLINK-3115,PAYLOAD,2024-08-11 10:59:58,15.08833084,0.0001553,53.2175,281.4454,106.6954,253.4209,-4.9513e-05,-1.076e-05,0.0,0 STARLINK-3115,1 49447U 21104AR  24224.45831206 -.00001076  00000-0 -49513-4 0  9991,2 49447  53.2175 281.4454 0001553 106.6954 253.4209 15.08833084153000,6917.902,95.438,540.841,538.692,0.0
49447.0,STARLINK-3115,PAYLOAD,2024-08-11 20:32:15,15.08856253,0.00014,53.2169,279.6553,96.4244,263.6907,7.463e-05,9e-06,0.0,0 STARLINK-3115,1 49447U 21104AR  24224.85573208  .00000900  00000-0  74630-4 0  9991,2 49447  53.2169 279.6553 0001400  96.4244 263.6907 15.08856253153068,6917.831,95.437,540.664,538.727,0.0
49447.0,STARLINK-3115,PAYLOAD,2024-08-12 02:53:48,15.08848721,0.0002135,53.2158,278.466,89.1444,270.9792,0.00018416,2.645e-05,0.0,0 STARLINK-3115,1 49447U 21104AR  24225.12069671  .00002645  00000-0  18416-3 0  9993,2 49447  53.2158 278.4660 0002135  89.1444 270.9792 15.08848721153108,6917.854,95.437,541.196,538.242,0.0
49447.0,STARLINK-3115,PAYLOAD,2024-08-12 14:01:29,15.08860724,0.0001194,53.216,276.3791,86.2544,273.8585,0.00031113,4.67e-05,0.0,0 STARLINK-3115,1 49447U 21104AR  24225.58436428  .00004670  00000-0  31113-3 0  9990,2 49447  53.2160 276.3791 0001194  86.2544 273.8585 15.08860724152104,6917.817,95.436,540.508,538.856,0.0
49447.0,STARLINK-3115,PAYLOAD,2024-08-13 02:44:35,15.08840037,0.0002156,53.2163,274.0034,95.225,264.8988,0.00023483,3.451e-05,0.0,0 STARLINK-3115,1 49447U 21104AR  24226.11429842  .00003451  00000-0  23483-3 0  9999,2 49447  53.2163 274.0034 0002156  95.2250 264.8988 15.08840037153254,6917.88,95.438,541.237,538.254,0.0
49447.0,STARLINK-3115,PAYLOAD,2024-08-13 12:16:55,15.08821423,0.000131,53.2151,272.2175,117.4423,242.6703,-4.4076e-05,-9.89e-06,0.0,0 STARLINK-3115,1 49447U 21104AR  24226.51175888 -.00000989  00000-0 -44076-4 0  9998,2 49447  53.2151 272.2175 0001310 117.4423 242.6703 15.08821423153311,6917.937,95.439,540.708,538.896,0.0
49447.0,STARLINK-3115,PAYLOAD,2024-08-13 20:13:51,15.08830113,0.0001431,53.2169,270.7331,105.0526,255.0624,-0.00010151,-1.903e-05,0.0,0 STARLINK-3115,1 49447U 21104AR  24226.84295867 -.00001903  00000-0 -10151-3 0  9997,2 49447  53.2169 270.7331 0001431 105.0526 255.0624 15.08830113152290,6917.911,95.438,540.766,538.786,0.0
49447.0,STARLINK-3115,PAYLOAD,2024-08-14 02:35:24,15.08836783,0.0002074,53.216,269.5408,88.47,271.653,-0.00016583,-2.926e-05,0.0,0 STARLINK-3115,1 49447U 21104AR  24227.10791936 -.00002926  00000-0 -16583-3 0  9996,2 49447  53.2160 269.5408 0002074  88.4700 271.6530 15.08836783153407,6917.89,95.438,541.19,538.32,0.0
49447.0,STARLINK-3115,PAYLOAD,2024-08-14 10:32:19,15.08837103,0.0001305,53.216,268.0547,101.9167,258.1972,4.4167e-06,-2.18e-06,0.0,0 STARLINK-3115,1 49447U 21104AR  24227.43911407 -.00000218  00000-0  44167-5 0  9991,2 49447  53.2160 268.0547 0001305 101.9167 258.1972 15.08837103152382,6917.889,95.438,540.657,538.851,0.0
49447.0,STARLINK-3115,PAYLOAD,2024-08-14 20:04:37,15.08841102,0.0001319,53.2156,266.2707,101.3268,258.7872,-4.1418e-05,-9.47e-06,0.0,0 STARLINK-3115,1 49447U 21104AR  24227.83655039 -.00000947  00000-0 -41418-4 0  9996,2 49447  53.2156 266.2707 0001319 101.3268 258.7872 15.08841102153511,6917.877,95.437,540.654,538.83,0.0
49447.0,STARLINK-3115,PAYLOAD,2024-08-15 08:47:43,15.08837613,0.0001316,53.2153,263.8916,108.4502,251.6633,0.00036899,5.589e-05,0.0,0 STARLINK-3115,1 49447U 21104AR  24228.36647556  .00005589  00000-0  36899-3 0  9991,2 49447  53.2153 263.8916 0001316 108.4502 251.6633 15.08837613152528,6917.888,95.438,540.663,538.842,0.0
49447.0,STARLINK-3115,PAYLOAD,2024-08-15 19:55:25,15.08846872,0.0001324,53.2151,261.8106,106.1548,253.959,0.00037862,5.744e-05,0.0,0 STARLINK-3115,1 49447U 21104AR  24228.83015134  .00005744  00000-0  37862-3 0  9998,2 49447  53.2151 261.8106 0001324 106.1548 253.9590 15.08846872152590,6917.859,95.437,540.64,538.808,0.0
49447.0,STARLINK-3115,PAYLOAD,2024-08-16 05:27:44,15.08842243,0.000139,53.2156,260.0274,104.9921,255.1225,0.00019036,2.743e-05,0.0,0 STARLINK-3115,1 49447U 21104AR  24229.22759416  .00002743  00000-0  19036-3 0  9999,2 49447  53.2156 260.0274 0001390 104.9921 255.1225 15.08842243153729,6917.874,95.437,540.7,538.777,0.0
49447.0,STARLINK-3115,PAYLOAD,2024-08-16 08:38:30,15.08844641,0.0001435,53.2157,259.4315,109.485,250.6297,0.00017508,2.5e-05,0.0,0 STARLINK-3115,1 49447U 21104AR  24229.36007260  .00002500  00000-0  17508-3 0  9990,2 49447  53.2157 259.4315 0001435 109.4850 250.6297 15.08844641152675,6917.866,95.437,540.724,538.738,0.0
49447.0,STARLINK-3115,PAYLOAD,2024-08-17 11:40:03,15.08846433,0.0001536,53.2165,254.3751,115.0611,245.0541,1.3356e-05,-7.5e-07,0.0,0 STARLINK-3115,1 49447U 21104AR  24230.48614798 -.00000075  00000-0  13356-4 0  9999,2 49447  53.2165 254.3751 0001536 115.0611 245.0541 15.08846433153911,6917.861,95.437,540.788,538.663,0.0
49447.0,STARLINK-3115,PAYLOAD,2024-08-18 05:09:17,15.08838188,0.0001382,53.2157,251.1034,107.9653,252.1489,3.8845e-05,3.3e-06,0.0,0 STARLINK-3115,1 49447U 21104AR  24231.21479121  .00000330  00000-0  38845-4 0  9993,2 49447  53.2157 251.1034 0001382 107.9653 252.1489 15.08838188154027,6917.886,95.438,540.707,538.795,0.0
49447.0,STARLINK-3115,PAYLOAD,2024-08-18 11:30:50,15.08837123,0.0001334,53.2157,249.9145,101.9381,258.1761,1.4729e-05,-5.3e-07,0.0,0 STARLINK-3115,1 49447U 21104AR  24231.47975228 -.00000053  00000-0  14729-4 0  9998,2 49447  53.2157 249.9145 0001334 101.9381 258.1761 15.08837123152995,6917.889,95.438,540.677,538.831,0.0
49447.0,STARLINK-3115,PAYLOAD,2024-08-19 11:21:37,15.08835331,0.0001324,53.2157,245.4536,99.2121,260.9021,1.619e-05,-3e-07,0.0,0 STARLINK-3115,1 49447U 21104AR  24232.47335491 -.00000030  00000-0  16190-4 0  9990,2 49447  53.2157 245.4536 0001324  99.2121 260.9021 15.08835331154216,6917.895,95.438,540.676,538.844,0.0
49447.0,STARLINK-3115,PAYLOAD,2024-08-20 08:01:38,15.08836246,0.0001299,53.2155,241.5878,95.8239,264.2902,6.6224e-05,7.66e-06,0.0,0 STARLINK-3115,1 49447U 21104AR  24233.33447575  .00000766  00000-0  66224-4 0  9991,2 49447  53.2155 241.5878 0001299  95.8239 264.2902 15.08836246153279,6917.892,95.438,540.655,538.858,0.0
